{
  "type": "FeatureCollection",
  "features": [
    {
      "type": "Feature",
      "properties": {
        "norad_id": 66558,
        "name": "STARLINK-35695",
        "group": "last-30-days",
        "lat": -30.272991155875786,
        "lon": 4.335182430839927,
        "alt_km": 408.9746007214226,
        "timestamp": "2025-12-08T13:49:30.577048+00:00",
        "meta_object_name": "STARLINK-35695",
        "meta_object_id": "2025-268B",
        "meta_epoch": "2025-12-08T06:00:02.999808",
        "meta_mean_motion": 15.54788251,
        "meta_eccentricity": 0.0001315,
        "meta_inclination": 43.0004,
        "meta_ra_of_asc_node": 147.4672,
        "meta_arg_of_pericenter": 274.246,
        "meta_mean_anomaly": 287.2836,
        "meta_ephemeris_type": 0,
        "meta_classification_type": "U",
        "meta_norad_cat_id": 66558,
        "meta_element_set_no": 999,
        "meta_rev_at_epoch": 394,
        "meta_bstar": -0.033512519,
        "meta_mean_motion_dot": -0.02042857,
        "meta_mean_motion_ddot": 0,
        "tle_line1": "1 66558U 25268B   25342.25003472 -.02042857  00000+0 -33513-1 0  9997",
        "tle_line2": "2 66558  43.0004 147.4672 0001315 274.2460 287.2836 15.54788251  3947"
      },
      "geometry": {
        "type": "Point",
        "coordinates": [
          4.335182430839927,
          -30.272991155875786
        ]
      }
    },
    {
      "type": "Feature",
      "properties": {
        "norad_id": 66559,
        "name": "STARLINK-35419",
        "group": "last-30-days",
        "lat": -31.276531547144746,
        "lon": 6.227832417474902,
        "alt_km": 408.70743173768733,
        "timestamp": "2025-12-08T13:49:30.577058+00:00",
        "meta_object_name": "STARLINK-35419",
        "meta_object_id": "2025-268C",
        "meta_epoch": "2025-12-08T06:00:02.999808",
        "meta_mean_motion": 15.54785297,
        "meta_eccentricity": 0.0001716,
        "meta_inclination": 43.0005,
        "meta_ra_of_asc_node": 147.4628,
        "meta_arg_of_pericenter": 267.0621,
        "meta_mean_anomaly": 296.3892,
        "meta_ephemeris_type": 0,
        "meta_classification_type": "U",
        "meta_norad_cat_id": 66559,
        "meta_element_set_no": 999,
        "meta_rev_at_epoch": 394,
        "meta_bstar": -0.033565297,
        "meta_mean_motion_dot": -0.02045785,
        "meta_mean_motion_ddot": 0,
        "tle_line1": "1 66559U 25268C   25342.25003472 -.02045785  00000+0 -33565-1 0  9998",
        "tle_line2": "2 66559  43.0005 147.4628 0001716 267.0621 296.3892 15.54785297  3944"
      },
      "geometry": {
        "type": "Point",
        "coordinates": [
          6.227832417474902,
          -31.276531547144746
        ]
      }
    },
    {
      "type": "Feature",
      "properties": {
        "norad_id": 66560,
        "name": "STARLINK-35411",
        "group": "last-30-days",
        "lat": -32.252938094204005,
        "lon": 8.163430797432254,
        "alt_km": 408.9756679154616,
        "timestamp": "2025-12-08T13:49:30.577068+00:00",
        "meta_object_name": "STARLINK-35411",
        "meta_object_id": "2025-268D",
        "meta_epoch": "2025-12-08T06:00:02.999808",
        "meta_mean_motion": 15.54794236,
        "meta_eccentricity": 0.00014004,
        "meta_inclination": 43.0004,
        "meta_ra_of_asc_node": 147.4581,
        "meta_arg_of_pericenter": 271.9599,
        "meta_mean_anomaly": 293.403,
        "meta_ephemeris_type": 0,
        "meta_classification_type": "U",
        "meta_norad_cat_id": 66560,
        "meta_element_set_no": 999,
        "meta_rev_at_epoch": 394,
        "meta_bstar": -0.03372942,
        "meta_mean_motion_dot": -0.02055113,
        "meta_mean_motion_ddot": 0,
        "tle_line1": "1 66560U 25268D   25342.25003472 -.02055113  00000+0 -33729-1 0  9998",
        "tle_line2": "2 66560  43.0004 147.4581 0001400 271.9599 293.4030 15.54794236  3946"
      },
      "geometry": {
        "type": "Point",
        "coordinates": [
          8.163430797432254,
          -32.252938094204005
        ]
      }
    },
    {
      "type": "Feature",
      "properties": {
        "norad_id": 66561,
        "name": "STARLINK-35305",
        "group": "last-30-days",
        "lat": -34.11274500512161,
        "lon": 12.158483434526376,
        "alt_km": 409.03464873748,
        "timestamp": "2025-12-08T13:49:30.577078+00:00",
        "meta_object_name": "STARLINK-35305",
        "meta_object_id": "2025-268E",
        "meta_epoch": "2025-12-08T06:00:02.999808",
        "meta_mean_motion": 15.54790042,
        "meta_eccentricity": 0.00012903,
        "meta_inclination": 43.0005,
        "meta_ra_of_asc_node": 147.4483,
        "meta_arg_of_pericenter": 267.6047,
        "meta_mean_anomaly": 301.5943,
        "meta_ephemeris_type": 0,
        "meta_classification_type": "U",
        "meta_norad_cat_id": 66561,
        "meta_element_set_no": 999,
        "meta_rev_at_epoch": 389,
        "meta_bstar": -0.033605383,
        "meta_mean_motion_dot": -0.02048015,
        "meta_mean_motion_ddot": 0,
        "tle_line1": "1 66561U 25268E   25342.25003472 -.02048015  00000+0 -33605-1 0  9995",
        "tle_line2": "2 66561  43.0005 147.4483 0001290 267.6047 301.5943 15.54790042  3895"
      },
      "geometry": {
        "type": "Point",
        "coordinates": [
          12.158483434526376,
          -34.11274500512161
        ]
      }
    },
    {
      "type": "Feature",
      "properties": {
        "norad_id": 66562,
        "name": "STARLINK-35579",
        "group": "last-30-days",
        "lat": -33.199000298931125,
        "lon": 10.139071223566038,
        "alt_km": 409.03764522561505,
        "timestamp": "2025-12-08T13:49:30.577088+00:00",
        "meta_object_name": "STARLINK-35579",
        "meta_object_id": "2025-268F",
        "meta_epoch": "2025-12-08T06:00:02.999808",
        "meta_mean_motion": 15.54794195,
        "meta_eccentricity": 0.00013323,
        "meta_inclination": 43.0005,
        "meta_ra_of_asc_node": 147.4524,
        "meta_arg_of_pericenter": 271.6446,
        "meta_mean_anomaly": 295.6363,
        "meta_ephemeris_type": 0,
        "meta_classification_type": "U",
        "meta_norad_cat_id": 66562,
        "meta_element_set_no": 999,
        "meta_rev_at_epoch": 394,
        "meta_bstar": -0.033734505,
        "meta_mean_motion_dot": -0.02055343,
        "meta_mean_motion_ddot": 0,
        "tle_line1": "1 66562U 25268F   25342.25003472 -.02055343  00000+0 -33735-1 0  9992",
        "tle_line2": "2 66562  43.0005 147.4524 0001332 271.6446 295.6363 15.54794195  3945"
      },
      "geometry": {
        "type": "Point",
        "coordinates": [
          10.139071223566038,
          -33.199000298931125
        ]
      }
    },
    {
      "type": "Feature",
      "properties": {
        "norad_id": 66563,
        "name": "STARLINK-35437",
        "group": "last-30-days",
        "lat": -34.991851925942065,
        "lon": 14.218007629135299,
        "alt_km": 409.0611926825959,
        "timestamp": "2025-12-08T13:49:30.577098+00:00",
        "meta_object_name": "STARLINK-35437",
        "meta_object_id": "2025-268G",
        "meta_epoch": "2025-12-08T06:00:02.999808",
        "meta_mean_motion": 15.54792989,
        "meta_eccentricity": 0.00013597,
        "meta_inclination": 43.0007,
        "meta_ra_of_asc_node": 147.4432,
        "meta_arg_of_pericenter": 270.3617,
        "meta_mean_anomaly": 300.754,
        "meta_ephemeris_type": 0,
        "meta_classification_type": "U",
        "meta_norad_cat_id": 66563,
        "meta_element_set_no": 999,
        "meta_rev_at_epoch": 394,
        "meta_bstar": -0.033708343,
        "meta_mean_motion_dot": -0.02053856,
        "meta_mean_motion_ddot": 0,
        "tle_line1": "1 66563U 25268G   25342.25003472 -.02053856  00000+0 -33708-1 0  9990",
        "tle_line2": "2 66563  43.0007 147.4432 0001359 270.3617 300.7540 15.54792989  3945"
      },
      "geometry": {
        "type": "Point",
        "coordinates": [
          14.218007629135299,
          -34.991851925942065
        ]
      }
    },
    {
      "type": "Feature",
      "properties": {
        "norad_id": 66564,
        "name": "STARLINK-35358",
        "group": "last-30-days",
        "lat": -35.83538929298561,
        "lon": 16.32418608193368,
        "alt_km": 409.06384867823544,
        "timestamp": "2025-12-08T13:49:30.577108+00:00",
        "meta_object_name": "STARLINK-35358",
        "meta_object_id": "2025-268H",
        "meta_epoch": "2025-12-08T06:00:02.999808",
        "meta_mean_motion": 15.54796958,
        "meta_eccentricity": 0.00013354,
        "meta_inclination": 43.0001,
        "meta_ra_of_asc_node": 147.4386,
        "meta_arg_of_pericenter": 267.5051,
        "meta_mean_anomaly": 305.5247,
        "meta_ephemeris_type": 0,
        "meta_classification_type": "U",
        "meta_norad_cat_id": 66564,
        "meta_element_set_no": 999,
        "meta_rev_at_epoch": 389,
        "meta_bstar": -0.033779603,
        "meta_mean_motion_dot": -0.02057985,
        "meta_mean_motion_ddot": 0,
        "tle_line1": "1 66564U 25268H   25342.25003472 -.02057985  00000+0 -33780-1 0  9998",
        "tle_line2": "2 66564  43.0001 147.4386 0001335 267.5051 305.5247 15.54796958  3893"
      },
      "geometry": {
        "type": "Point",
        "coordinates": [
          16.32418608193368,
          -35.83538929298561
        ]
      }
    }
  ]
}